ONEWEB-0350             
1 49214U 21083AE  25014.65514599  .00000386  00000+0  10233-2 0  9997
2 49214  87.8896  63.3344 0002189  97.1328 263.0050 13.13468430162863
ONEWEB-0351             
1 49215U 21083AF  25014.93121937  .00000084  00000+0  17427-3 0  9997
2 49215  87.9244  17.5466 0001895 117.0627 243.0700 13.20773944168363
ONEWEB-0352             
1 49216U 21083AG  25014.63609321 -.00000115  00000+0 -35039-3 0  9999
2 49216  87.8898  63.3749 0001982 113.3037 246.8301 13.13470879162952
ONEWEB-0354             
1 49217U 21083AH  25014.95661462  .00000138  00000+0  30719-3 0  9992
2 49217  87.9247  17.5340 0002194  88.1633 271.9751 13.20774315168401
ONEWEB-0355             
1 49218U 21083AJ  25014.66625132  .00000235  00000+0  60738-3 0  9997
2 49218  87.8900  63.3681 0002026 102.3610 257.7746 13.13467144162830
ONEWEB-0357             
1 49219U 21083AK  25014.95346889  .00000128  00000+0  28389-3 0  9996
2 49219  87.9245  17.5461 0001872  95.2869 264.8478 13.20772610168400
ONEWEB-0332             
1 49279U 21090A   25014.55204527 -.00000005  00000+0 -48972-4 0  9995
2 49279  87.8986  32.8459 0001541  98.4644 261.6661 13.14501828159440
ONEWEB-0347             
1 49280U 21090B   25014.71672407  .00000114  00000+0  24774-3 0  9993
2 49280  87.9247  17.5972 0001356  89.7614 270.3675 13.20772507162602
